{
"type": "FeatureCollection",
"name": "elva_route",
"crs": { "type": "name", "properties": { "name": "urn:ogc:def:crs:OGC:1.3:CRS84" } },
"features": [
{ "type": "Feature", "properties": { "id": 1 }, "geometry": { "type": "MultiLineString", "coordinates": [ [ [ 26.421591998792795, 58.224325807001264 ], [ 26.421354621584669, 58.223970165570989 ], [ 26.420825060705429, 58.224084982809046 ], [ 26.420528482691388, 58.223996120739201 ], [ 26.420282004565685, 58.223931847440134 ], [ 26.419886105703391, 58.223806560084782 ], [ 26.419302980011757, 58.223633748839582 ], [ 26.418641972903906, 58.223454754224278 ], [ 26.418445249550128, 58.223409965385557 ], [ 26.418127122827396, 58.223359823305273 ], [ 26.417307308196893, 58.223265582904837 ], [ 26.416518077581816, 58.223193744893777 ], [ 26.416238898529961, 58.223146689092502 ], [ 26.415690867242922, 58.222991075005659 ], [ 26.415750629950779, 58.223157248859145 ], [ 26.415810720221156, 58.223292764272777 ], [ 26.415948021358972, 58.223601784813525 ], [ 26.416086958466273, 58.2238992795724 ], [ 26.416185559506747, 58.223889741923756 ], [ 26.416368606632012, 58.224301343559702 ], [ 26.416259048744784, 58.224327692924916 ], [ 26.416205533061405, 58.224359362591464 ], [ 26.415935493261927, 58.224304469150951 ], [ 26.415728161057412, 58.224281589729983 ], [ 26.415000592651744, 58.224262211122443 ], [ 26.414307723204921, 58.224219180055137 ], [ 26.413940719317594, 58.224162292962745 ], [ 26.413757111419994, 58.224096813012679 ], [ 26.413509774615541, 58.224019771382594 ], [ 26.41291300367126, 58.223788440547985 ], [ 26.41198236264686, 58.223417846532797 ], [ 26.411812833140242, 58.223345710853614 ], [ 26.411696178595303, 58.223338984489629 ], [ 26.411591629368029, 58.223367789117034 ], [ 26.41097958138338, 58.223657825517556 ], [ 26.410537667644672, 58.223851398320193 ], [ 26.409763301299641, 58.224210920118345 ], [ 26.408844754103427, 58.224657463027448 ], [ 26.408841366019214, 58.224821005002092 ], [ 26.408841828608075, 58.225112190986522 ], [ 26.408852599556067, 58.225270355910993 ], [ 26.408843217411381, 58.225559174148025 ], [ 26.408216478365933, 58.225527627814003 ], [ 26.407717201100876, 58.22551920712214 ], [ 26.407522520639489, 58.225860067778669 ], [ 26.407657235969076, 58.22588305916836 ], [ 26.40826966150583, 58.225953194681303 ], [ 26.408385240048631, 58.225837336445721 ], [ 26.408596921354707, 58.225710716637096 ], [ 26.408731000233796, 58.225653257251672 ], [ 26.408865266822641, 58.225634109257626 ], [ 26.409008697731085, 58.225642885151927 ], [ 26.409099039028895, 58.225689705175377 ], [ 26.40925357782125, 58.226039274690983 ], [ 26.409347743294795, 58.226142217561481 ], [ 26.409502166032894, 58.226205702890965 ], [ 26.409675062964272, 58.22625606607275 ], [ 26.409797865878094, 58.226281835446798 ], [ 26.409987499030805, 58.22629356576526 ], [ 26.410185760649302, 58.226289806124889 ], [ 26.410608026708246, 58.226304786729763 ], [ 26.411001800878019, 58.226327969467974 ], [ 26.411499037431525, 58.226377285709532 ], [ 26.411864494828492, 58.226411220460285 ], [ 26.412275387668043, 58.226472389599081 ], [ 26.4130156299032, 58.226534967884824 ], [ 26.413762490032767, 58.226694481394659 ], [ 26.414215035091164, 58.226798277237272 ], [ 26.414568952779607, 58.226875847455879 ], [ 26.41476569049485, 58.226920642288668 ], [ 26.415019760735582, 58.226954130041555 ], [ 26.415267037789597, 58.226888126794073 ], [ 26.415445046134106, 58.226800450374718 ], [ 26.415515580802229, 58.226627968466268 ], [ 26.415644754480283, 58.226321545827147 ], [ 26.415819102829136, 58.225896764251623 ], [ 26.415949273492046, 58.225534126553868 ], [ 26.416054392069963, 58.225442726005518 ], [ 26.416229080292464, 58.225306578776824 ], [ 26.416511323371203, 58.225114744896359 ], [ 26.41661003523895, 58.22500047650022 ], [ 26.416751276430741, 58.224865088339101 ], [ 26.416769079916271, 58.224848022629466 ], [ 26.416976180558116, 58.225044600705957 ], [ 26.417168667068729, 58.225204418345996 ], [ 26.417277924163667, 58.225244487095871 ], [ 26.417761764187983, 58.225416642430218 ], [ 26.417971109772434, 58.22546885543295 ], [ 26.418139591834635, 58.225489916205689 ], [ 26.418596945606748, 58.225557843966016 ], [ 26.418646783556344, 58.225578607521477 ], [ 26.418626886328674, 58.225587490375659 ], [ 26.418273259277445, 58.225745362496568 ], [ 26.41793658506467, 58.22588459453803 ], [ 26.417843884264897, 58.225945108243742 ], [ 26.41772080430307, 58.226163292441441 ], [ 26.417599030536497, 58.226400609282187 ], [ 26.417400481467027, 58.226896098628039 ], [ 26.417307822999405, 58.227028132907954 ], [ 26.416955124436548, 58.227251960395023 ], [ 26.416871392663008, 58.227302085326073 ], [ 26.416305085833798, 58.227588722703963 ], [ 26.416022800252453, 58.227744795632319 ], [ 26.415835573965584, 58.227874794769605 ], [ 26.415726570024066, 58.227980317751474 ], [ 26.415556248206865, 58.227932467885466 ], [ 26.415473254623095, 58.227922550599679 ], [ 26.415255553881696, 58.227925410547449 ], [ 26.414520737558323, 58.228049208969466 ], [ 26.413440554679571, 58.228291952709384 ], [ 26.412344301123415, 58.228547763728947 ], [ 26.412004862795239, 58.228611678417458 ], [ 26.411936233036279, 58.228617131587008 ], [ 26.411824318776851, 58.228626918292534 ], [ 26.411477234281545, 58.228596465926593 ], [ 26.41124989221284, 58.228582260038174 ], [ 26.410827155792308, 58.228543023713684 ], [ 26.410486030988068, 58.228511178461503 ], [ 26.410249444662163, 58.228485651581806 ], [ 26.409976284894462, 58.228456347645228 ], [ 26.409493355279842, 58.228404199377998 ], [ 26.409222267199922, 58.228369745891385 ], [ 26.408885387779904, 58.228364636499954 ], [ 26.408062757308059, 58.228372561683642 ], [ 26.407489264272034, 58.228377039926279 ], [ 26.407482031211536, 58.228377483449165 ], [ 26.407428988646647, 58.228380735957792 ], [ 26.407463960093786, 58.228609963964345 ], [ 26.407315073859991, 58.228592349249666 ], [ 26.407212042665048, 58.228572588746793 ], [ 26.407194807720401, 58.228675088659351 ], [ 26.407167070681499, 58.228872297947817 ], [ 26.4071887840839, 58.228977891726622 ], [ 26.40713978006017, 58.22911164533533 ], [ 26.407131249174761, 58.229164170810968 ], [ 26.407090142753542, 58.229164949286549 ], [ 26.407098574258242, 58.22907538780612 ], [ 26.407125928432311, 58.229014842842346 ], [ 26.407140845220077, 58.228949424740932 ], [ 26.407121996683777, 58.228885923267335 ], [ 26.407113241617591, 58.22879285576046 ], [ 26.407123582772545, 58.228731355820074 ], [ 26.407139875722194, 58.228650585629495 ], [ 26.407141573883596, 58.228568814672521 ], [ 26.407014276221012, 58.228548236415094 ], [ 26.406853040165469, 58.228527023538845 ], [ 26.406769700444119, 58.228511998473117 ], [ 26.406670104873193, 58.228435977076749 ], [ 26.406095534521331, 58.228317861283116 ], [ 26.405878935713279, 58.228265766039613 ], [ 26.405452473401223, 58.22815378400739 ], [ 26.405380010511955, 58.228120671863167 ], [ 26.405219710044584, 58.228041966732249 ], [ 26.40515502186496, 58.228016370345131 ], [ 26.404885047634757, 58.227926968481761 ], [ 26.404520158190632, 58.227794660904372 ], [ 26.404045944628336, 58.227656757213886 ], [ 26.40382848600958, 58.227591903208896 ], [ 26.403485287493726, 58.227493666044076 ], [ 26.40306368643321, 58.227417345035214 ], [ 26.402920839566836, 58.227345970158389 ], [ 26.402724704589229, 58.227238564723741 ], [ 26.402512244034867, 58.227104647133928 ], [ 26.402308684723938, 58.226994827116719 ], [ 26.402243386437171, 58.226924540066634 ], [ 26.402176276919256, 58.226863227378367 ], [ 26.402030669727672, 58.226786795086994 ], [ 26.401840069183308, 58.226689501119544 ], [ 26.401776937669148, 58.226651102037444 ], [ 26.40171345266679, 58.226571840324802 ], [ 26.401697725850859, 58.226518496580859 ], [ 26.401735884596494, 58.226474351883041 ], [ 26.401768601284644, 58.226421369857412 ], [ 26.401367945504322, 58.226510679146699 ], [ 26.401159124532573, 58.226394571011156 ], [ 26.401068791941213, 58.22634774534729 ], [ 26.400843307814856, 58.226235783022652 ], [ 26.400726466492259, 58.226190735050196 ], [ 26.400387525756127, 58.226119229960617 ], [ 26.399893667403255, 58.226012334464976 ], [ 26.39900396949611, 58.225815845169066 ], [ 26.398147698197452, 58.225612333285369 ], [ 26.397798831192681, 58.225465656217011 ], [ 26.397089103473192, 58.225173802749836 ], [ 26.396212473303461, 58.224812294317843 ], [ 26.396107299257373, 58.224760636510446 ], [ 26.395968784539811, 58.224431186046886 ], [ 26.395902981258754, 58.224245961079561 ], [ 26.395626826056091, 58.223599814872316 ], [ 26.395331858231717, 58.222961685803753 ], [ 26.395117029009217, 58.222505957012302 ], [ 26.394951939498174, 58.22221276712115 ], [ 26.394940540775742, 58.222044396746128 ], [ 26.397790842302527, 58.222097929535018 ], [ 26.399070424032281, 58.222119757254831 ], [ 26.40071678293118, 58.222124426383552 ], [ 26.401315642975455, 58.222102894305991 ], [ 26.40266049274797, 58.222087691958983 ], [ 26.403717316090081, 58.222108575743519 ], [ 26.403837865409699, 58.222172708147831 ], [ 26.404123309651965, 58.22281100043206 ], [ 26.404345885908228, 58.223378960348562 ], [ 26.405307387880558, 58.223279026958743 ], [ 26.406306525100547, 58.223163047559922 ], [ 26.406970662378079, 58.223104492350707 ], [ 26.406944540026885, 58.223218655126765 ], [ 26.406887124817015, 58.223477730626726 ], [ 26.406870399750769, 58.223801171057779 ], [ 26.406889232855384, 58.224077959975247 ], [ 26.406807130939207, 58.22411655276904 ], [ 26.406552765894748, 58.224149467477552 ], [ 26.406229675748321, 58.224204117604138 ], [ 26.405814376666306, 58.224291164512827 ], [ 26.405183227784807, 58.224443599300216 ], [ 26.404905732845531, 58.224528035071842 ], [ 26.404994786047652, 58.224627246092105 ], [ 26.405079784830743, 58.224738028293515 ], [ 26.405255747574554, 58.22469127448111 ], [ 26.405154160599441, 58.224550154304197 ], [ 26.405744904582075, 58.224408701907841 ], [ 26.406211138606377, 58.224287484513127 ], [ 26.406592936176814, 58.224206179373212 ], [ 26.406818810103438, 58.224181467183215 ], [ 26.406946091944533, 58.224202045638471 ], [ 26.407106527174292, 58.224211778675723 ], [ 26.407136855946597, 58.224515170403592 ], [ 26.407222009259225, 58.224556981249108 ], [ 26.407222162332548, 58.224986107088242 ], [ 26.407258825011407, 58.226093995225163 ], [ 26.407314556681346, 58.226912882024905 ], [ 26.407480187119056, 58.228350391312937 ], [ 26.407482031211536, 58.228377483449165 ], [ 26.407500329750448, 58.228646312975883 ], [ 26.407539574120623, 58.229222849993548 ], [ 26.407688510987153, 58.230770512025636 ], [ 26.407863980460611, 58.231640771872911 ], [ 26.407929365984323, 58.231889858429781 ], [ 26.408264259315786, 58.232256447540053 ], [ 26.408607095182543, 58.232597342010379 ], [ 26.409038038403416, 58.232951892006746 ], [ 26.409892015862031, 58.233686681443139 ], [ 26.410024723089329, 58.233786339212543 ], [ 26.410250750705959, 58.233976183800564 ], [ 26.410768571564926, 58.234610058935921 ], [ 26.411005391957765, 58.234958066901356 ], [ 26.411395393348609, 58.235563711951265 ], [ 26.411557133410525, 58.235662817623528 ], [ 26.411513926688158, 58.235747139471286 ], [ 26.411581970199503, 58.235931924218846 ], [ 26.411939760651077, 58.236374376057057 ], [ 26.41245871658591, 58.236962629332957 ], [ 26.413137946581699, 58.237683408143866 ], [ 26.413397693974382, 58.237944300011002 ], [ 26.414050177991069, 58.238346595389352 ], [ 26.414386856180997, 58.238552860191881 ], [ 26.415741773729209, 58.239202312343131 ], [ 26.416749603393843, 58.23964037425192 ], [ 26.417455718323207, 58.240015051732072 ], [ 26.419080525038403, 58.240776300841901 ], [ 26.419923887776857, 58.241166961807885 ], [ 26.420720868546731, 58.241542551182206 ], [ 26.421212957456429, 58.241735207403607 ], [ 26.422042602478498, 58.241998521087822 ], [ 26.423164505181305, 58.242333349143749 ], [ 26.4258705690753, 58.242685802519922 ], [ 26.428510435850786, 58.242954399834069 ], [ 26.429765589771424, 58.243026118191111 ], [ 26.432043431166804, 58.243014469587791 ], [ 26.433899094413903, 58.243021495002488 ], [ 26.435007441093354, 58.243010907773026 ], [ 26.435535429966759, 58.243064593695472 ], [ 26.43709414358722, 58.243151691305854 ], [ 26.437607124330693, 58.243280087610877 ], [ 26.43903953417734, 58.243582243721178 ], [ 26.440904072895211, 58.244301411737773 ], [ 26.443594819558918, 58.245302405401794 ], [ 26.444063562475812, 58.245519349623407 ], [ 26.44508462125313, 58.246286568159135 ], [ 26.445976798205592, 58.246939294483383 ], [ 26.446406582101101, 58.247175587997212 ], [ 26.447742788414391, 58.247686846482615 ], [ 26.447860917125123, 58.247790903598741 ], [ 26.449119683729975, 58.248202624617015 ], [ 26.449655130374108, 58.248362441210169 ], [ 26.449877653738572, 58.248517651162395 ], [ 26.453803661495346, 58.249872113975918 ], [ 26.456111120070503, 58.2507154388692 ], [ 26.456425913371781, 58.250746575137349 ], [ 26.456444013008831, 58.250746786368367 ], [ 26.456468190098658, 58.250701896873572 ], [ 26.456459334351681, 58.250574470251266 ], [ 26.456401099387438, 58.250389515112118 ], [ 26.456214023963, 58.25016451579414 ], [ 26.455468394386699, 58.24936406893093 ], [ 26.454874180585037, 58.24880355223965 ], [ 26.454230672329658, 58.248271007513253 ], [ 26.453611426027333, 58.247841580146329 ], [ 26.453052535761994, 58.247419993485543 ], [ 26.452721598042459, 58.24720568865596 ], [ 26.452440913413287, 58.246976902390095 ], [ 26.452170947247662, 58.246779435754668 ], [ 26.452070556453293, 58.246686790978465 ], [ 26.451957267765575, 58.246531341097686 ], [ 26.451904007083407, 58.24637923756331 ], [ 26.451887365299122, 58.246262458660084 ], [ 26.451927630575717, 58.246104047964508 ], [ 26.452042799157017, 58.245917169903251 ], [ 26.452330974214487, 58.24551527495916 ], [ 26.452624552669935, 58.245068236615744 ], [ 26.453073333065134, 58.244519118957705 ], [ 26.453252362529657, 58.244267953797198 ], [ 26.453401741253721, 58.243958810490604 ], [ 26.45343003352167, 58.243751087881385 ], [ 26.453346391900279, 58.243284302178125 ], [ 26.453204291892913, 58.242836659705418 ], [ 26.453109837596529, 58.242460159373913 ], [ 26.452950476505659, 58.242440714625658 ], [ 26.45284421866489, 58.24238646647656 ], [ 26.452684598492826, 58.242301720720448 ], [ 26.452510883718432, 58.242260033119457 ], [ 26.45229368768382, 58.24226872613842 ], [ 26.452158615853538, 58.242291598430313 ], [ 26.451862156500564, 58.242265788618866 ], [ 26.451620517001352, 58.242229913457507 ], [ 26.451320784079662, 58.242156875234492 ], [ 26.451146136127782, 58.242101692295996 ], [ 26.450703015503912, 58.241993134173491 ], [ 26.450085507404768, 58.241894690792812 ], [ 26.44971483685638, 58.241845534981813 ], [ 26.449456454759527, 58.241814482211275 ], [ 26.449134879856498, 58.241795905744709 ], [ 26.448862925350827, 58.241753853640638 ], [ 26.448699616486792, 58.241738983537303 ], [ 26.44840901021659, 58.241550915222497 ], [ 26.447966960317004, 58.241334235355282 ], [ 26.447400210308999, 58.241043389378873 ], [ 26.447075281253969, 58.240914528674168 ], [ 26.446455375464694, 58.240719282133348 ], [ 26.446139293362972, 58.240594752754063 ], [ 26.44584942374809, 58.24047872603348 ], [ 26.445657111751686, 58.240414868035096 ], [ 26.445084845598949, 58.240290759895409 ], [ 26.444479088366172, 58.240176300813168 ], [ 26.444081767660581, 58.240111878095931 ], [ 26.443200905990373, 58.239971174438608 ], [ 26.442428896011879, 58.239675244060095 ], [ 26.442175337271991, 58.239590038489965 ], [ 26.441975905519936, 58.23954657906863 ], [ 26.441819275118785, 58.239504549226275 ], [ 26.441761661590043, 58.239474129027819 ], [ 26.441780344095335, 58.239435487806134 ], [ 26.441840740105725, 58.239382533997535 ], [ 26.441651618738323, 58.239302845568389 ], [ 26.441458544275811, 58.23922773659887 ], [ 26.441367281199714, 58.239204718125492 ], [ 26.441105903323525, 58.239191721676782 ], [ 26.440908410863862, 58.239114444826917 ], [ 26.440404022269643, 58.238921456001769 ], [ 26.440149542595421, 58.238822752836633 ], [ 26.439993923002163, 58.238733411448756 ], [ 26.439734790568149, 58.238567239662984 ], [ 26.439505821879973, 58.238404992421216 ], [ 26.439428051342155, 58.238329919929789 ], [ 26.439209937604332, 58.238077387776258 ], [ 26.43909828432086, 58.237944415682598 ], [ 26.438940575635456, 58.237762785164264 ], [ 26.438773487987554, 58.237630876269002 ], [ 26.438601595301133, 58.237553105020496 ], [ 26.438460329043853, 58.237486005645252 ], [ 26.438212765269864, 58.237301593952076 ], [ 26.437936982496467, 58.237079440630005 ], [ 26.437662443472288, 58.236875278142954 ], [ 26.437384728513674, 58.236686939324983 ], [ 26.437074377144906, 58.236458691377429 ], [ 26.436901408992895, 58.236365175318475 ], [ 26.436726737045326, 58.236246920788894 ], [ 26.436560284661287, 58.236124004702674 ], [ 26.436354600853324, 58.236051382092334 ], [ 26.436016419586952, 58.235976794347124 ], [ 26.435859510078053, 58.235806404655762 ], [ 26.435706556371521, 58.235631435207594 ], [ 26.435656243383175, 58.235582857388309 ], [ 26.435508940688724, 58.23555190103508 ], [ 26.434999737982633, 58.235473831370278 ], [ 26.434797717403715, 58.235268274189785 ], [ 26.434574998316581, 58.235072120727004 ], [ 26.434332509780113, 58.234898864474161 ], [ 26.434039010450462, 58.234728836419585 ], [ 26.433747835593508, 58.234592541699875 ], [ 26.433400302896263, 58.234443813799878 ], [ 26.433138120750115, 58.234356504511709 ], [ 26.432690888466254, 58.234247965237216 ], [ 26.432272181450788, 58.234181664673983 ], [ 26.431765634638747, 58.234141813970176 ], [ 26.431398781796627, 58.234146579257221 ], [ 26.430880217644187, 58.23411821437535 ], [ 26.430490345018956, 58.234098646411049 ], [ 26.430223108369095, 58.234124022594457 ], [ 26.429651402526016, 58.234254301114156 ], [ 26.429473305770429, 58.234334269250397 ], [ 26.429041560268924, 58.234948278607568 ], [ 26.428918180036526, 58.235078993863979 ], [ 26.428813338842609, 58.23516882073919 ], [ 26.429004912678831, 58.235160656658728 ], [ 26.429284703032693, 58.235193592498284 ], [ 26.429443400437037, 58.235204071139471 ], [ 26.429656791122849, 58.235389151884569 ], [ 26.429728942247895, 58.235507123194658 ], [ 26.429921570839596, 58.235638554950299 ], [ 26.430236478114622, 58.236058143149478 ], [ 26.430133674454559, 58.23605335266771 ], [ 26.429909373558171, 58.2360824109386 ], [ 26.429686709535691, 58.236073155352969 ], [ 26.429556930238647, 58.2360486129338 ], [ 26.429404748750994, 58.23600873524714 ], [ 26.429278616049992, 58.235975115298572 ], [ 26.428736449891542, 58.235976466789943 ], [ 26.428393369505347, 58.236016799121792 ], [ 26.428067190599787, 58.2360545558167 ], [ 26.427560584813499, 58.236138543007712 ], [ 26.427255975371718, 58.236117336582588 ], [ 26.425973424370831, 58.236031475249376 ], [ 26.424788955399645, 58.235943730361818 ], [ 26.424253154997249, 58.235726508411041 ], [ 26.424157185497247, 58.235696812065854 ], [ 26.423864549052755, 58.235414150623384 ], [ 26.423585069421623, 58.235198794316013 ], [ 26.423303846134871, 58.235082553621162 ], [ 26.422937035481596, 58.234963439856116 ], [ 26.422707909105551, 58.234859716265333 ], [ 26.422571976400096, 58.234745208814289 ], [ 26.422521632943468, 58.234633574002821 ], [ 26.422485055864975, 58.234598240888026 ], [ 26.422094419442686, 58.234380496005159 ], [ 26.421850091659199, 58.234304083217332 ], [ 26.421614908878592, 58.234236503302931 ], [ 26.421421134654285, 58.23415011916611 ], [ 26.421320244292094, 58.234048454304862 ], [ 26.421108184312661, 58.233944402961633 ], [ 26.42065777599678, 58.233601686985871 ], [ 26.420233267343178, 58.233262980234436 ], [ 26.419591178726897, 58.232739255943251 ], [ 26.419599858105133, 58.232522910226969 ], [ 26.419552296759328, 58.232451755360515 ], [ 26.419202493290207, 58.232206202583406 ], [ 26.41874030038813, 58.231940268751565 ], [ 26.418017066480662, 58.231602735445108 ], [ 26.417398940227848, 58.231303733196782 ], [ 26.417137589375091, 58.231227635689301 ], [ 26.415524721810158, 58.23074036420234 ], [ 26.415925114647759, 58.230352187681184 ], [ 26.416221408910236, 58.230065071178785 ], [ 26.416500337280496, 58.229773780294735 ], [ 26.416784753874335, 58.229500399372732 ], [ 26.416933278765789, 58.229362462590785 ], [ 26.416880120218437, 58.229334199001379 ], [ 26.416664913848816, 58.229245963989442 ], [ 26.416329412406746, 58.229146504318301 ], [ 26.415872081061362, 58.229013329473858 ], [ 26.41535856188074, 58.22886996143103 ], [ 26.415140864846805, 58.228807667859051 ], [ 26.415085423337317, 58.228777195066641 ], [ 26.415116842498549, 58.228737190251287 ], [ 26.41510349679087, 58.228698036022728 ], [ 26.415073251438624, 58.228661454780031 ], [ 26.415398978886618, 58.228336624830391 ], [ 26.415552286453483, 58.228174954083691 ], [ 26.415695395345995, 58.228020232591554 ], [ 26.41587781252472, 58.227909801277882 ], [ 26.415960215920414, 58.227835048971528 ], [ 26.416216833877275, 58.227686050706986 ], [ 26.416500392035822, 58.227525280291168 ], [ 26.416780222302261, 58.227372461650049 ], [ 26.417062104875406, 58.227218477378152 ], [ 26.417315659966683, 58.227056023701557 ], [ 26.417426726915565, 58.226932309798705 ], [ 26.41749270292053, 58.226773423420504 ], [ 26.417638400379413, 58.226406973671985 ], [ 26.417696099586095, 58.226283148709292 ], [ 26.417755545580942, 58.226153660786309 ], [ 26.417804508076081, 58.226058150442348 ], [ 26.417850590888289, 58.225982961765418 ], [ 26.417875994304651, 58.225948700300954 ], [ 26.417949499443758, 58.225900012424965 ], [ 26.41815870638073, 58.225807082839466 ], [ 26.418436713195181, 58.225690324914979 ], [ 26.418650257434585, 58.225598437876748 ], [ 26.418626886328674, 58.225587490375659 ], [ 26.418601750536766, 58.225575716259783 ], [ 26.418538938538578, 58.225562274369786 ], [ 26.41839215381863, 58.225538045044459 ], [ 26.418213089873984, 58.225509925990579 ], [ 26.418055878902987, 58.22548927248824 ], [ 26.417981253360576, 58.225482529247557 ], [ 26.417929348874296, 58.225472538843988 ], [ 26.417870036775739, 58.225455652227517 ], [ 26.417785713372361, 58.225431922799714 ], [ 26.417744254934473, 58.225418637262834 ], [ 26.417644698957805, 58.225382812194589 ], [ 26.417469571519554, 58.225318587185214 ], [ 26.41729928395155, 58.225262714432752 ], [ 26.417201783467398, 58.225225723999259 ], [ 26.417155947339658, 58.225210832632939 ], [ 26.417125405521681, 58.225185516918835 ], [ 26.417067826528157, 58.225139322572907 ], [ 26.416997295410393, 58.225075359508459 ], [ 26.416935904945664, 58.225020230086216 ], [ 26.416849340254611, 58.224940245757828 ], [ 26.416791685192074, 58.224892926808934 ], [ 26.416751276430741, 58.224865088339101 ], [ 26.416736814733081, 58.224855125362737 ], [ 26.41685146798422, 58.224752736500463 ], [ 26.416927678338308, 58.224649952687642 ], [ 26.416942932616365, 58.224576476564373 ], [ 26.416973394047918, 58.224475688694959 ], [ 26.416978480623158, 58.224393961394718 ], [ 26.416967947419224, 58.224349124166643 ], [ 26.416911435687236, 58.224302909481267 ], [ 26.416806477240705, 58.224203571038565 ], [ 26.416623176503073, 58.224082077565853 ], [ 26.416459462909383, 58.223997367385053 ], [ 26.416357502325308, 58.223941883208269 ], [ 26.416304352380184, 58.223913619374471 ], [ 26.416236973940556, 58.223770780331051 ], [ 26.416209150963034, 58.223707130835493 ], [ 26.416079119151281, 58.223678076744221 ], [ 26.415913183290119, 58.223310797686921 ], [ 26.415812724823169, 58.223089771666537 ], [ 26.416183036632905, 58.223199829145088 ], [ 26.416440197660833, 58.223246732730225 ], [ 26.416760915140362, 58.223286797464873 ], [ 26.417087489498734, 58.223318868435754 ], [ 26.417564256748353, 58.223362718683319 ], [ 26.418002661148634, 58.223407297098007 ], [ 26.41832582068545, 58.22345181523994 ], [ 26.418687443493816, 58.223528252794303 ], [ 26.4193286478347, 58.223698449933117 ], [ 26.419911564900442, 58.223890020787692 ], [ 26.420242248132009, 58.224013206778295 ], [ 26.420369945359308, 58.224070449684127 ], [ 26.420479768666745, 58.224147173893698 ], [ 26.420746167436402, 58.2241105734252 ], [ 26.420957303904938, 58.224077277019731 ], [ 26.421337540245887, 58.223988965229552 ], [ 26.421558973383018, 58.224308735787666 ], [ 26.421572691451424, 58.224329867286826 ] ], [ [ 26.456444013008831, 58.250746786368367 ], [ 26.456597494677045, 58.250748577569425 ], [ 26.45669108867849, 58.250789302241223 ], [ 26.456823015896223, 58.250946250899176 ], [ 26.458834846703649, 58.251742073696398 ], [ 26.459612937722103, 58.252053998058585 ], [ 26.459650704908988, 58.252120632643688 ], [ 26.459525525522391, 58.252102208548592 ], [ 26.458753393375773, 58.251803459888151 ], [ 26.457763496043757, 58.251418533479196 ], [ 26.456365468774091, 58.250892619098508 ], [ 26.456444013008831, 58.250746786368367 ] ], [ [ 26.459650704908988, 58.252120632643688 ], [ 26.459693415597005, 58.252195989301413 ], [ 26.461330960978383, 58.25282888234522 ], [ 26.463152822042215, 58.253500718814273 ], [ 26.46354331200364, 58.253640691342788 ], [ 26.463569992529813, 58.253625553942662 ], [ 26.463236564095201, 58.253508401067123 ], [ 26.463052789866598, 58.253440186087197 ], [ 26.462825192814869, 58.253358198810552 ], [ 26.462632941299887, 58.253276855936733 ], [ 26.462373465776263, 58.253171560482116 ], [ 26.462287875256873, 58.253137330534884 ], [ 26.461785239603767, 58.252943700904851 ], [ 26.461473745706151, 58.252815485920436 ], [ 26.460926188182629, 58.252592152099517 ], [ 26.460445951993002, 58.25239409662305 ], [ 26.46015599709542, 58.252285399091271 ], [ 26.45982986924971, 58.252164109096405 ], [ 26.459764981258221, 58.252137452012931 ], [ 26.459650704908988, 58.252120632643688 ] ] ] } }
]
}
